BEIDOU-3 M24-C46
1 44542U 19061A   23123.21785292  .00000005  00000+0  00000+0 0  9996
2 44542  54.5066 221.2635 0007250 346.4268  13.5753  1.86231184 24548
